{
    "links": {
        "self": "http://www.neowsapp.com/rest/v1/neo/3550885?api_key=iIulBulltgU6a56xZRHN4H3l9WmuAYTsLGpBGhQ2"
    },
    "id": "3550885",
    "neo_reference_id": "3550885",
    "name": "(2010 VA40)",
    "designation": "2010 VA40",
    "nasa_jpl_url": "http://ssd.jpl.nasa.gov/sbdb.cgi?sstr=3550885",
    "absolute_magnitude_h": 26.3,
    "estimated_diameter": {
        "kilometers": {
            "estimated_diameter_min": 0.0146067964,
            "estimated_diameter_max": 0.0326617897
        },
        "meters": {
            "estimated_diameter_min": 14.6067964271,
            "estimated_diameter_max": 32.6617897446
        },
        "miles": {
            "estimated_diameter_min": 0.0090762397,
            "estimated_diameter_max": 0.020295089
        },
        "feet": {
            "estimated_diameter_min": 47.92256199,
            "estimated_diameter_max": 107.1581062656
        }
    },
    "is_potentially_hazardous_asteroid": false,
    "close_approach_data": [
        {
            "close_approach_date": "2010-11-01",
            "close_approach_date_full": "2010-Nov-01 13:28",
            "epoch_date_close_approach": 1288618080000,
            "relative_velocity": {
                "kilometers_per_second": "7.1037840797",
                "kilometers_per_hour": "25573.6226870263",
                "miles_per_hour": "15890.454607947"
            },
            "miss_distance": {
                "astronomical": "0.039127234",
                "lunar": "15.220494026",
                "kilometers": "5853350.86539158",
                "miles": "3637103.573020604"
            },
            "orbiting_body": "Earth"
        }
    ],
    "orbital_data": {
        "orbit_id": "7",
        "orbit_determination_date": "2019-07-19 05:25:26",
        "first_observation_date": "2010-11-02",
        "last_observation_date": "2010-11-08",
        "data_arc_in_days": 6,
        "observations_used": 20,
        "orbit_uncertainty": "8",
        "minimum_orbit_intersection": ".0354962",
        "jupiter_tisserand_invariant": "3.262",
        "epoch_osculation": "2455505.5",
        "eccentricity": ".575364876686659",
        "semi_major_axis": "2.424347649010041",
        "inclination": "2.013219439568241",
        "ascending_node_longitude": "215.891917850591",
        "orbital_period": "1378.766659117768",
        "perihelion_distance": "1.029463162891787",
        "perihelion_argument": "178.4245433454448",
        "aphelion_distance": "3.819232135128295",
        "perihelion_time": "2455498.683411937824",
        "mean_anomaly": "1.779831044038723",
        "mean_motion": ".2611029194964384",
        "equinox": "J2000",
        "orbit_class": {
            "orbit_class_type": "AMO",
            "orbit_class_description": "Near-Earth asteroid orbits similar to that of 1221 Amor",
            "orbit_class_range": "1.017 AU < q (perihelion) < 1.3 AU"
        }
    },
    "is_sentry_object": false
}